[{"OBJECT_NAME":"KUIPER-00116","OBJECT_ID":"2025-171X","EPOCH":"2026-03-05T15:26:08.964384","MEAN_MOTION":14.79931574,"ECCENTRICITY":0.00010731,"INCLINATION":51.8999,"RA_OF_ASC_NODE":191.0223,"ARG_OF_PERICENTER":131.9516,"MEAN_ANOMALY":228.1538,"EPHEMERIS_TYPE":0,"CLASSIFICATION_TYPE":"U","NORAD_CAT_ID":65153,"ELEMENT_SET_NO":999,"REV_AT_EPOCH":3207,"BSTAR":0.00097273208,"MEAN_MOTION_DOT":7.202e-5,"MEAN_MOTION_DDOT":0},{"OBJECT_NAME":"KUIPER-00118","OBJECT_ID":"2025-171Y","EPOCH":"2026-03-06T07:34:18.088896","MEAN_MOTION":14.80028483,"ECCENTRICITY":5.73e-5,"INCLINATION":51.8993,"RA_OF_ASC_NODE":190.5026,"ARG_OF_PERICENTER":78.6782,"MEAN_ANOMALY":281.4244,"EPHEMERIS_TYPE":0,"CLASSIFICATION_TYPE":"U","NORAD_CAT_ID":65154,"ELEMENT_SET_NO":999,"REV_AT_EPOCH":3214,"BSTAR":0.00082738731,"MEAN_MOTION_DOT":6.106e-5,"MEAN_MOTION_DDOT":0},{"OBJECT_NAME":"KUIPER-00119","OBJECT_ID":"2025-171Z","EPOCH":"2026-03-06T07:54:01.621152","MEAN_MOTION":14.79999385,"ECCENTRICITY":0.00010513,"INCLINATION":51.9008,"RA_OF_ASC_NODE":178.0294,"ARG_OF_PERICENTER":141.8268,"MEAN_ANOMALY":218.2769,"EPHEMERIS_TYPE":0,"CLASSIFICATION_TYPE":"U","NORAD_CAT_ID":65155,"ELEMENT_SET_NO":999,"REV_AT_EPOCH":3231,"BSTAR":0.00084952084,"MEAN_MOTION_DOT":6.271e-5,"MEAN_MOTION_DDOT":0},{"OBJECT_NAME":"KUIPER-00120","OBJECT_ID":"2025-217A","EPOCH":"2026-03-06T05:28:47.681760","MEAN_MOTION":14.79969279,"ECCENTRICITY":5.916e-5,"INCLINATION":51.8987,"RA_OF_ASC_NODE":68.3732,"ARG_OF_PERICENTER":204.4052,"MEAN_ANOMALY":155.6882,"EPHEMERIS_TYPE":0,"CLASSIFICATION_TYPE":"U","NORAD_CAT_ID":65762,"ELEMENT_SET_NO":999,"REV_AT_EPOCH":2422,"BSTAR":-0.00074876327,"MEAN_MOTION_DOT":-5.929e-5,"MEAN_MOTION_DDOT":0},{"OBJECT_NAME":"KUIPER-00132","OBJECT_ID":"2025-217B","EPOCH":"2026-03-06T07:23:36.365856","MEAN_MOTION":15.39610126,"ECCENTRICITY":0.00062338,"INCLINATION":51.8614,"RA_OF_ASC_NODE":19.9154,"ARG_OF_PERICENTER":321.4013,"MEAN_ANOMALY":38.6528,"EPHEMERIS_TYPE":0,"CLASSIFICATION_TYPE":"U","NORAD_CAT_ID":65763,"ELEMENT_SET_NO":999,"REV_AT_EPOCH":2490,"BSTAR":0.00070333073,"MEAN_MOTION_DOT":0.00027867,"MEAN_MOTION_DDOT":0},{"OBJECT_NAME":"KUIPER-00133","OBJECT_ID":"2025-217C","EPOCH":"2026-03-06T04:40:11.297280","MEAN_MOTION":14.79930656,"ECCENTRICITY":0.00019559,"INCLINATION":51.9038,"RA_OF_ASC_NODE":68.5744,"ARG_OF_PERICENTER":26.6878,"MEAN_ANOMALY":333.4184,"EPHEMERIS_TYPE":0,"CLASSIFICATION_TYPE":"U","NORAD_CAT_ID":65764,"ELEMENT_SET_NO":999,"REV_AT_EPOCH":2422,"BSTAR":0.00019871168,"MEAN_MOTION_DOT":1.294e-5,"MEAN_MOTION_DDOT":0},{"OBJECT_NAME":"KUIPER-00139","OBJECT_ID":"2025-217D","EPOCH":"2026-03-06T05:58:13.111968","MEAN_MOTION":15.01821605,"ECCENTRICITY":0.00071724,"INCLINATION":51.8855,"RA_OF_ASC_NODE":49.5512,"ARG_OF_PERICENTER":308.4791,"MEAN_ANOMALY":51.5537,"EPHEMERIS_TYPE":0,"CLASSIFICATION_TYPE":"U","NORAD_CAT_ID":65765,"ELEMENT_SET_NO":999,"REV_AT_EPOCH":2449,"BSTAR":0.00076546585,"MEAN_MOTION_DOT":9.844e-5,"MEAN_MOTION_DDOT":0},{"OBJECT_NAME":"KUIPER-00142","OBJECT_ID":"2025-217E","EPOCH":"2026-03-06T05:56:08.501568","MEAN_MOTION":14.79918286,"ECCENTRICITY":7.935e-5,"INCLINATION":51.8992,"RA_OF_ASC_NODE":50.8122,"ARG_OF_PERICENTER":90.2202,"MEAN_ANOMALY":269.8851,"EPHEMERIS_TYPE":0,"CLASSIFICATION_TYPE":"U","NORAD_CAT_ID":65766,"ELEMENT_SET_NO":999,"REV_AT_EPOCH":2447,"BSTAR":-4.6629796e-5,"MEAN_MOTION_DOT":-5.76e-6,"MEAN_MOTION_DDOT":0},{"OBJECT_NAME":"KUIPER-00145","OBJECT_ID":"2025-217F","EPOCH":"2026-03-06T05:52:04.844928","MEAN_MOTION":14.79951827,"ECCENTRICITY":8.456e-5,"INCLINATION":51.9,"RA_OF_ASC_NODE":53.3376,"ARG_OF_PERICENTER":81.331,"MEAN_ANOMALY":278.7748,"EPHEMERIS_TYPE":0,"CLASSIFICATION_TYPE":"U","NORAD_CAT_ID":65767,"ELEMENT_SET_NO":999,"REV_AT_EPOCH":2443,"BSTAR":0.00071547252,"MEAN_MOTION_DOT":5.24e-5,"MEAN_MOTION_DDOT":0},{"OBJECT_NAME":"KUIPER-00147","OBJECT_ID":"2025-217G","EPOCH":"2026-03-06T06:36:56.607552","MEAN_MOTION":14.79938293,"ECCENTRICITY":8.89e-5,"INCLINATION":51.8983,"RA_OF_ASC_NODE":55.6934,"ARG_OF_PERICENTER":80.6187,"MEAN_ANOMALY":279.4876,"EPHEMERIS_TYPE":0,"CLASSIFICATION_TYPE":"U","NORAD_CAT_ID":65768,"ELEMENT_SET_NO":999,"REV_AT_EPOCH":2440,"BSTAR":-0.00011941689,"MEAN_MOTION_DOT":-1.132e-5,"MEAN_MOTION_DDOT":0},{"OBJECT_NAME":"KUIPER-00148","OBJECT_ID":"2025-217H","EPOCH":"2026-03-06T07:06:17.454240","MEAN_MOTION":15.09571777,"ECCENTRICITY":0.00083498,"INCLINATION":51.8789,"RA_OF_ASC_NODE":40.3799,"ARG_OF_PERICENTER":343.5811,"MEAN_ANOMALY":16.4892,"EPHEMERIS_TYPE":0,"CLASSIFICATION_TYPE":"U","NORAD_CAT_ID":65769,"ELEMENT_SET_NO":999,"REV_AT_EPOCH":2462,"BSTAR":0.00036269171,"MEAN_MOTION_DOT":5.609e-5,"MEAN_MOTION_DDOT":0},{"OBJECT_NAME":"KUIPER-00150","OBJECT_ID":"2025-217J","EPOCH":"2026-03-06T06:21:04.228128","MEAN_MOTION":14.80015307,"ECCENTRICITY":7.632e-5,"INCLINATION":51.9008,"RA_OF_ASC_NODE":65.7485,"ARG_OF_PERICENTER":49.4345,"MEAN_ANOMALY":310.6683,"EPHEMERIS_TYPE":0,"CLASSIFICATION_TYPE":"U","NORAD_CAT_ID":65770,"ELEMENT_SET_NO":999,"REV_AT_EPOCH":2426,"BSTAR":0.00066528718,"MEAN_MOTION_DOT":4.864e-5,"MEAN_MOTION_DDOT":0},{"OBJECT_NAME":"KUIPER-00151","OBJECT_ID":"2025-217K","EPOCH":"2026-03-06T06:33:01.894176","MEAN_MOTION":14.79930078,"ECCENTRICITY":0.00010345,"INCLINATION":51.9029,"RA_OF_ASC_NODE":58.2121,"ARG_OF_PERICENTER":55.6596,"MEAN_ANOMALY":304.4464,"EPHEMERIS_TYPE":0,"CLASSIFICATION_TYPE":"U","NORAD_CAT_ID":65771,"ELEMENT_SET_NO":999,"REV_AT_EPOCH":2437,"BSTAR":-0.00037107399,"MEAN_MOTION_DOT":-3.049e-5,"MEAN_MOTION_DDOT":0},{"OBJECT_NAME":"KUIPER-00152","OBJECT_ID":"2025-217L","EPOCH":"2026-03-06T06:03:48.219552","MEAN_MOTION":14.79947321,"ECCENTRICITY":7.133e-5,"INCLINATION":51.9007,"RA_OF_ASC_NODE":45.792,"ARG_OF_PERICENTER":115.8986,"MEAN_ANOMALY":244.205,"EPHEMERIS_TYPE":0,"CLASSIFICATION_TYPE":"U","NORAD_CAT_ID":65772,"ELEMENT_SET_NO":999,"REV_AT_EPOCH":2454,"BSTAR":0.00013062303,"MEAN_MOTION_DOT":7.75e-6,"MEAN_MOTION_DDOT":0},{"OBJECT_NAME":"KUIPER-00153","OBJECT_ID":"2025-217M","EPOCH":"2026-03-06T07:07:00.266304","MEAN_MOTION":15.13178639,"ECCENTRICITY":0.00103417,"INCLINATION":51.879,"RA_OF_ASC_NODE":43.3379,"ARG_OF_PERICENTER":312.6937,"MEAN_ANOMALY":47.3168,"EPHEMERIS_TYPE":0,"CLASSIFICATION_TYPE":"U","NORAD_CAT_ID":65773,"ELEMENT_SET_NO":999,"REV_AT_EPOCH":2458,"BSTAR":0.00093214819,"MEAN_MOTION_DOT":0.00016497,"MEAN_MOTION_DDOT":0},{"OBJECT_NAME":"KUIPER-00155","OBJECT_ID":"2025-217N","EPOCH":"2026-03-06T04:29:38.404320","MEAN_MOTION":15.23007149,"ECCENTRICITY":0.00057347,"INCLINATION":51.8791,"RA_OF_ASC_NODE":28.0847,"ARG_OF_PERICENTER":315.3863,"MEAN_ANOMALY":44.6656,"EPHEMERIS_TYPE":0,"CLASSIFICATION_TYPE":"U","NORAD_CAT_ID":65774,"ELEMENT_SET_NO":999,"REV_AT_EPOCH":2478,"BSTAR":0.00017423407,"MEAN_MOTION_DOT":3.822e-5,"MEAN_MOTION_DDOT":0}]
