KUIPER-00116            
1 65153U 25171X   26064.64315931  .00007202  00000+0  97273-3 0  9997
2 65153  51.8999 191.0223 0001073 131.9516 228.1538 14.79931574 32079
KUIPER-00118            
1 65154U 25171Y   26065.31548714  .00006106  00000+0  82739-3 0  9993
2 65154  51.8993 190.5026 0000573  78.6782 281.4244 14.80028483 32147
KUIPER-00119            
1 65155U 25171Z   26065.32918543  .00006271  00000+0  84952-3 0  9998
2 65155  51.9008 178.0294 0001051 141.8268 218.2769 14.79999385 32313
KUIPER-00120            
1 65762U 25217A   26065.22832965 -.00005929  00000+0 -74876-3 0  9990
2 65762  51.8987  68.3732 0000591 204.4052 155.6882 14.79969279 24225
KUIPER-00132            
1 65763U 25217B   26065.30805979  .00027867  00000+0  70333-3 0  9992
2 65763  51.8614  19.9154 0006233 321.4013  38.6528 15.39610126 24902
KUIPER-00133            
1 65764U 25217C   26065.19457520  .00001294  00000+0  19871-3 0  9991
2 65764  51.9038  68.5744 0001955  26.6878 333.4184 14.79930656 24223
KUIPER-00139            
1 65765U 25217D   26065.24876287  .00009844  00000+0  76547-3 0  9995
2 65765  51.8855  49.5512 0007172 308.4791  51.5537 15.01821605 24492
KUIPER-00142            
1 65766U 25217E   26065.24732062 -.00000576  00000+0 -46630-4 0  9994
2 65766  51.8992  50.8122 0000793  90.2202 269.8851 14.79918286 24479
KUIPER-00145            
1 65767U 25217F   26065.24450052  .00005240  00000+0  71547-3 0  9996
2 65767  51.9000  53.3376 0000845  81.3310 278.7748 14.79951827 24437
KUIPER-00147            
1 65768U 25217G   26065.27565518 -.00001132  00000+0 -11942-3 0  9995
2 65768  51.8983  55.6934 0000889  80.6187 279.4876 14.79938293 24403
KUIPER-00148            
1 65769U 25217H   26065.29603535  .00005609  00000+0  36269-3 0  9990
2 65769  51.8789  40.3799 0008349 343.5811  16.4892 15.09571777 24627
KUIPER-00150            
1 65770U 25217J   26065.26463227  .00004864  00000+0  66529-3 0  9995
2 65770  51.9008  65.7485 0000763  49.4345 310.6683 14.80015307 24260
KUIPER-00151            
1 65771U 25217K   26065.27293859 -.00003049  00000+0 -37107-3 0  9995
2 65771  51.9029  58.2121 0001034  55.6596 304.4464 14.79930078 24376
KUIPER-00152            
1 65772U 25217L   26065.25264143  .00000775  00000+0  13062-3 0  9993
2 65772  51.9007  45.7920 0000713 115.8986 244.2050 14.79947321 24546
KUIPER-00153            
1 65773U 25217M   26065.29653086  .00016497  00000+0  93215-3 0  9992
2 65773  51.8790  43.3379 0010341 312.6937  47.3168 15.13178639 24581
KUIPER-00155            
1 65774U 25217N   26065.18725005  .00003822  00000+0  17423-3 0  9997
2 65774  51.8791  28.0847 0005734 315.3863  44.6656 15.23007149 24783
